STARLINK-32655          
1 62202U 24229L   26068.00407619  .00024977  00000+0  91419-3 0  9995
2 62202  42.9989 274.8291 0001585 276.7643  83.3028 15.27575873 70452
FLOCK 4G-6              
1 62660U 25009BD  26068.71061311  .00012261  00000+0  45910-3 0  9991
2 62660  97.3980 150.7943 0002380 348.2637  11.8546 15.27432125121307
